STARLINK-1802           
1 46702C 20073AJ  25053.20881944  .00021858  00000+0  14641-2 0   534
2 46702  53.0528 129.6633 0001547  79.8986 285.9768 15.06387941    18
STARLINK-1803           
1 46703C 20073AK  25053.16715278  .00210810  00000+0  27757-2 0   536
2 46703  53.0456 123.4631 0007231 311.2292 140.3081 15.57576503    10
STARLINK-1805           
1 46705C 20073AM  25053.20256944  .00001316  00000+0  88184-4 0   535
2 46705  53.0522 164.6902 0001507  84.6669 114.8521 15.06396657    12
STARLINK-1807           
1 46706C 20073AN  25053.20673611  .00029593  00000+0  19833-2 0   530
2 46706  53.0531 149.6721 0001302  76.6648 287.9373 15.06359660    16
STARLINK-1808           
1 46707C 20073AP  25053.18590278  .00164760  00000+0  17685-2 0   534
2 46707  53.0453  99.0048 0005077 326.7181 141.6852 15.62962491    16
STARLINK-1810           
1 46709C 20073AR  25053.20395833  .00003946  00000+0  26439-3 0   535
2 46709  53.0530 164.8135 0001330  77.4730 269.4839 15.06394348    12
STARLINK-1814           
1 46712C 20073AU  25053.20812500 -.00002579  00000+0 -17284-3 0   535
2 46712  53.0523 149.7929 0001334  92.6313  79.4417 15.06398933    16
STARLINK-1815           
1 46713C 20073AV  25053.20326389 -.00002734  00000+0 -18317-3 0   532
2 46713  53.0526 149.6803 0001533  91.2220  59.6771 15.06403234    17
STARLINK-1816           
1 46714C 20073AW  25053.19840278 -.00010732  00000+0 -71900-3 0   533
2 46714  53.0528 149.7115 0001358  79.8788  99.5125 15.06412863    17
STARLINK-1817           
1 46715C 20073AX  25053.19701389  .00028321  00000+0  18984-2 0   536
2 46715  53.0530 149.7181 0001241  77.6367 114.1858 15.06354231    15
STARLINK-1818           
1 46716C 20073AY  25053.21020833  .00146460  00000+0  32861-2 0   533
2 46716  53.0530 146.3542 0011125 230.9953   3.7132 15.42594129    17
STARLINK-1820           
1 46717C 20073AZ  25053.20743056  .00033390  00000+0  19531-2 0   538
2 46717  53.0528 149.4950 0000900  36.6883 201.4901 15.11325892    10
STARLINK-1821           
1 46718C 20073BA  25053.19215278  .00070185  00000+0  47042-2 0   538
2 46718  53.0512 164.7785 0001364  90.6030  92.3400 15.06315308    15
STARLINK-1822           
1 46719C 20073BB  25053.20881944  .00021877  00000+0  14655-2 0   538
2 46719  53.0532 129.6614 0001565  73.5941 312.2896 15.06384841    14
STARLINK-1826           
1 46723C 20073BF  25053.20604167  .00019196  00000+0  12858-2 0   537
2 46723  53.0536 124.6784 0001578  74.1415 284.1860 15.06389067    16
STARLINK-1828           
1 46725C 20073BH  25053.19701389  .00027407  00000+0  18359-2 0   537
2 46725  53.0524 164.7178 0001426  96.7593 192.5746 15.06380240    15
STARLINK-1830           
1 46727C 20073BK  25053.20812500  .00020139  00000+0  13489-2 0   533
2 46727  53.0531 124.6688 0001427  77.2893  12.3056 15.06392031    18
STARLINK-1848           
1 46740C 20074B   25053.21090278  .00010325  00000+0  69161-3 0   535
2 46740  53.0514 234.6543 0001370  85.8361 233.8587 15.06397150    14
STARLINK-1865           
1 46741C 20074C   25053.21576389  .01335300  00000+0  14627-2 0   538
2 46741  53.0308 183.4557 0009892 310.7587 119.3821 16.07572943    15
STARLINK-1892           
1 46743C 20074E   25053.20187500  .00012734  00000+0  85332-3 0   536
2 46743  53.0529 229.6954 0001360  87.3132 130.9745 15.06379983    12
STARLINK-1894           
1 46744C 20074F   25053.20326389  .00053921  00000+0  36129-2 0   539
2 46744  53.0516 229.9586 0002425  71.9402 273.5012 15.06342145    16
STARLINK-1905           
1 46746C 20074H   25053.20812500  .00008689  00000+0  58256-3 0   533
2 46746  53.0518 229.6675 0001397  86.0832 346.2271 15.06367118    19
STARLINK-1911           
1 46749C 20074L   25053.20812500  .00010164  00000+0  68094-3 0   538
2 46749  53.0519 229.6673 0001352  89.4220   2.6690 15.06392805    19
STARLINK-1920           
1 46751C 20074N   25053.17895833  .00212150  00000+0  28824-2 0   532
2 46751  53.0451 199.9770 0009962 180.6094 233.8380 15.56708978    13
STARLINK-1922           
1 46753C 20074Q   25053.20395833  .00010881  00000+0  72903-3 0   538
2 46753  53.0529 229.6870 0001378  80.6673 128.8891 15.06389230    19
STARLINK-1924           
1 46755C 20074S   25053.18937500  .00013131  00000+0  87984-3 0   536
2 46755  53.0531 234.7520 0001409  87.6854 335.2749 15.06382424    10
STARLINK-1925           
1 46756C 20074T   25053.19979167  .00266960  00000+0  16162-2 0   532
2 46756  53.0423 199.3872 0007787 307.4128 111.2148 15.76573592    19
